{
    "links": {
        "self": "http://www.neowsapp.com/rest/v1/neo/3444273?api_key=iIulBulltgU6a56xZRHN4H3l9WmuAYTsLGpBGhQ2"
    },
    "id": "3444273",
    "neo_reference_id": "3444273",
    "name": "(2009 AC16)",
    "designation": "2009 AC16",
    "nasa_jpl_url": "http://ssd.jpl.nasa.gov/sbdb.cgi?sstr=3444273",
    "absolute_magnitude_h": 21.4,
    "estimated_diameter": {
        "kilometers": {
            "estimated_diameter_min": 0.1394938229,
            "estimated_diameter_max": 0.3119176705
        },
        "meters": {
            "estimated_diameter_min": 139.4938229344,
            "estimated_diameter_max": 311.9176705226
        },
        "miles": {
            "estimated_diameter_min": 0.0866774163,
            "estimated_diameter_max": 0.1938165949
        },
        "feet": {
            "estimated_diameter_min": 457.6569140361,
            "estimated_diameter_max": 1023.3519701574
        }
    },
    "is_potentially_hazardous_asteroid": true,
    "close_approach_data": [
        {
            "close_approach_date": "2009-01-25",
            "close_approach_date_full": "2009-Jan-25 12:15",
            "epoch_date_close_approach": 1232885700000,
            "relative_velocity": {
                "kilometers_per_second": "15.710689089",
                "kilometers_per_hour": "56558.4807204187",
                "miles_per_hour": "35143.2404231957"
            },
            "miss_distance": {
                "astronomical": "0.1366061173",
                "lunar": "53.1397796297",
                "kilometers": "20435984.177050151",
                "miles": "12698331.7381520438"
            },
            "orbiting_body": "Earth"
        },
        {
            "close_approach_date": "2085-01-19",
            "close_approach_date_full": "2085-Jan-19 19:57",
            "epoch_date_close_approach": 3630772620000,
            "relative_velocity": {
                "kilometers_per_second": "19.5352267996",
                "kilometers_per_hour": "70326.8164785542",
                "miles_per_hour": "43698.3488280217"
            },
            "miss_distance": {
                "astronomical": "0.1154580728",
                "lunar": "44.9131903192",
                "kilometers": "17272281.765184936",
                "miles": "10732498.2163306768"
            },
            "orbiting_body": "Earth"
        }
    ],
    "orbital_data": {
        "orbit_id": "10",
        "orbit_determination_date": "2017-04-06 09:01:42",
        "first_observation_date": "2009-01-15",
        "last_observation_date": "2009-01-31",
        "data_arc_in_days": 16,
        "observations_used": 40,
        "orbit_uncertainty": "8",
        "minimum_orbit_intersection": ".0124696",
        "jupiter_tisserand_invariant": "4.260",
        "epoch_osculation": "2454850.5",
        "eccentricity": ".5407874539509061",
        "semi_major_axis": "1.533368814506929",
        "inclination": "18.4870585098283",
        "ascending_node_longitude": "106.8697790780556",
        "orbital_period": "693.5349733713439",
        "perihelion_distance": ".7041421973420074",
        "perihelion_argument": "99.72602696173165",
        "aphelion_distance": "2.36259543167185",
        "perihelion_time": "2454912.474321380876",
        "mean_anomaly": "327.8303812298599",
        "mean_motion": ".5190798068192631",
        "equinox": "J2000",
        "orbit_class": {
            "orbit_class_type": "APO",
            "orbit_class_description": "Near-Earth asteroid orbits which cross the Earth’s orbit similar to that of 1862 Apollo",
            "orbit_class_range": "a (semi-major axis) > 1.0 AU; q (perihelion) < 1.017 AU"
        }
    },
    "is_sentry_object": false
}